{
  "type": "FeatureCollection",
  "features": [
    {
      "type": "Feature",
      "properties": {
        "norad_id": 37781,
        "name": "HAIYANG-2A",
        "group": "resource",
        "lat": -64.8261561664764,
        "lon": 160.62817553508995,
        "alt_km": 976.3367152180554,
        "timestamp": "2025-12-26T09:30:53.284714+00:00",
        "meta_object_name": "HAIYANG-2A",
        "meta_object_id": "2011-043A",
        "meta_epoch": "2025-12-26T04:50:24.290592",
        "meta_mean_motion": 13.78836125,
        "meta_eccentricity": 0.0001578,
        "meta_inclination": 99.3381,
        "meta_ra_of_asc_node": 0.9286,
        "meta_arg_of_pericenter": 66.172,
        "meta_mean_anomaly": 293.9597,
        "meta_ephemeris_type": 0,
        "meta_classification_type": "U",
        "meta_norad_cat_id": 37781,
        "meta_element_set_no": 999,
        "meta_rev_at_epoch": 72284,
        "meta_bstar": -3.942e-05,
        "meta_mean_motion_dot": -8.4e-07,
        "meta_mean_motion_ddot": 0,
        "tle_line1": "1 37781U 11043A   25360.20167003 -.00000084  00000+0 -39420-4 0  9995",
        "tle_line2": "2 37781  99.3381   0.9286 0001578  66.1720 293.9597 13.78836125722840"
      },
      "geometry": {
        "type": "Point",
        "coordinates": [
          160.62817553508995,
          -64.8261561664764
        ]
      }
    },
    {
      "type": "Feature",
      "properties": {
        "norad_id": 37791,
        "name": "RASAT",
        "group": "resource",
        "lat": 54.83443574954157,
        "lon": 77.84177404196463,
        "alt_km": 649.8091981267034,
        "timestamp": "2025-12-26T09:30:53.284726+00:00",
        "meta_object_name": "RASAT",
        "meta_object_id": "2011-044D",
        "meta_epoch": "2025-12-26T04:44:54.721248",
        "meta_mean_motion": 14.67927948,
        "meta_eccentricity": 0.0021224,
        "meta_inclination": 98.0639,
        "meta_ra_of_asc_node": 89.2552,
        "meta_arg_of_pericenter": 24.2468,
        "meta_mean_anomaly": 62.4911,
        "meta_ephemeris_type": 0,
        "meta_classification_type": "U",
        "meta_norad_cat_id": 37791,
        "meta_element_set_no": 999,
        "meta_rev_at_epoch": 76780,
        "meta_bstar": 0.00012994,
        "meta_mean_motion_dot": 6.97e-06,
        "meta_mean_motion_ddot": 0,
        "tle_line1": "1 37791U 11044D   25360.19785557  .00000697  00000+0  12994-3 0  9999",
        "tle_line2": "2 37791  98.0639  89.2552 0021224  24.2468  62.4911 14.67927948767800"
      },
      "geometry": {
        "type": "Point",
        "coordinates": [
          77.84177404196463,
          54.83443574954157
        ]
      }
    },
    {
      "type": "Feature",
      "properties": {
        "norad_id": 37841,
        "name": "SRMSAT",
        "group": "resource",
        "lat": 12.504226265637659,
        "lon": 167.66954375159958,
        "alt_km": 843.2563759741315,
        "timestamp": "2025-12-26T09:30:53.284737+00:00",
        "meta_object_name": "SRMSAT",
        "meta_object_id": "2011-058D",
        "meta_epoch": "2025-12-26T02:10:29.616384",
        "meta_mean_motion": 14.1151586,
        "meta_eccentricity": 0.0011991,
        "meta_inclination": 19.9732,
        "meta_ra_of_asc_node": 27.151,
        "meta_arg_of_pericenter": 99.3628,
        "meta_mean_anomaly": 283.7397,
        "meta_ephemeris_type": 0,
        "meta_classification_type": "U",
        "meta_norad_cat_id": 37841,
        "meta_element_set_no": 999,
        "meta_rev_at_epoch": 73333,
        "meta_bstar": 9.1638e-05,
        "meta_mean_motion_dot": 4.34e-06,
        "meta_mean_motion_ddot": 0,
        "tle_line1": "1 37841U 11058D   25360.09062056  .00000434  00000+0  91638-4 0  9993",
        "tle_line2": "2 37841  19.9732  27.1510 0011991  99.3628 283.7397 14.11515860733330"
      },
      "geometry": {
        "type": "Point",
        "coordinates": [
          167.66954375159958,
          12.504226265637659
        ]
      }
    },
    {
      "type": "Feature",
      "properties": {
        "norad_id": 38012,
        "name": "PLEIADES 1A",
        "group": "resource",
        "lat": 66.78873505288072,
        "lon": -87.44745795469642,
        "alt_km": 690.648393809729,
        "timestamp": "2025-12-26T09:30:53.284747+00:00",
        "meta_object_name": "PLEIADES 1A",
        "meta_object_id": "2011-076F",
        "meta_epoch": "2025-12-26T04:27:06.984864",
        "meta_mean_motion": 14.58573241,
        "meta_eccentricity": 0.0001058,
        "meta_inclination": 98.1804,
        "meta_ra_of_asc_node": 72.7456,
        "meta_arg_of_pericenter": 78.1826,
        "meta_mean_anomaly": 6.5389,
        "meta_ephemeris_type": 0,
        "meta_classification_type": "U",
        "meta_norad_cat_id": 38012,
        "meta_element_set_no": 999,
        "meta_rev_at_epoch": 74677,
        "meta_bstar": 7.7677e-05,
        "meta_mean_motion_dot": 3.16e-06,
        "meta_mean_motion_ddot": 0,
        "tle_line1": "1 38012U 11076F   25360.18549751  .00000316  00000+0  77677-4 0  9992",
        "tle_line2": "2 38012  98.1804  72.7456 0001058  78.1826   6.5389 14.58573241746775"
      },
      "geometry": {
        "type": "Point",
        "coordinates": [
          -87.44745795469642,
          66.78873505288072
        ]
      }
    },
    {
      "type": "Feature",
      "properties": {
        "norad_id": 38038,
        "name": "ZIYUAN 1-02C (ZY 1-02C)",
        "group": "resource",
        "lat": 81.50840099267289,
        "lon": -30.41613291419503,
        "alt_km": 752.2827038835139,
        "timestamp": "2025-12-26T09:30:53.284758+00:00",
        "meta_object_name": "ZIYUAN 1-02C (ZY 1-02C)",
        "meta_object_id": "2011-079A",
        "meta_epoch": "2025-12-26T04:28:50.520576",
        "meta_mean_motion": 14.38026583,
        "meta_eccentricity": 0.0007555,
        "meta_inclination": 98.4312,
        "meta_ra_of_asc_node": 65.9513,
        "meta_arg_of_pericenter": 103.5773,
        "meta_mean_anomaly": 342.1589,
        "meta_ephemeris_type": 0,
        "meta_classification_type": "U",
        "meta_norad_cat_id": 38038,
        "meta_element_set_no": 999,
        "meta_rev_at_epoch": 73434,
        "meta_bstar": 0.00015118,
        "meta_mean_motion_dot": 4.14e-06,
        "meta_mean_motion_ddot": 0,
        "tle_line1": "1 38038U 11079A   25360.18669584  .00000414  00000+0  15118-3 0  9990",
        "tle_line2": "2 38038  98.4312  65.9513 0007555 103.5773 342.1589 14.38026583734341"
      },
      "geometry": {
        "type": "Point",
        "coordinates": [
          -30.41613291419503,
          81.50840099267289
        ]
      }
    },
    {
      "type": "Feature",
      "properties": {
        "norad_id": 38338,
        "name": "ARIRANG-3 (KOMPSAT-3)",
        "group": "resource",
        "lat": 15.577111365420796,
        "lon": 137.43217454089216,
        "alt_km": 690.2474200976003,
        "timestamp": "2025-12-26T09:30:53.284769+00:00",
        "meta_object_name": "ARIRANG-3 (KOMPSAT-3)",
        "meta_object_id": "2012-025B",
        "meta_epoch": "2025-12-26T03:50:14.203104",
        "meta_mean_motion": 14.61729689,
        "meta_eccentricity": 0.0004668,
        "meta_inclination": 98.3342,
        "meta_ra_of_asc_node": 314.8517,
        "meta_arg_of_pericenter": 290.1461,
        "meta_mean_anomaly": 69.9237,
        "meta_ephemeris_type": 0,
        "meta_classification_type": "U",
        "meta_norad_cat_id": 38338,
        "meta_element_set_no": 999,
        "meta_rev_at_epoch": 72606,
        "meta_bstar": 0.0001279,
        "meta_mean_motion_dot": 5.89e-06,
        "meta_mean_motion_ddot": 0,
        "tle_line1": "1 38338U 12025B   25360.15988661  .00000589  00000+0  12790-3 0  9998",
        "tle_line2": "2 38338  98.3342 314.8517 0004668 290.1461  69.9237 14.61729689726062"
      },
      "geometry": {
        "type": "Point",
        "coordinates": [
          137.43217454089216,
          15.577111365420796
        ]
      }
    },
    {
      "type": "Feature",
      "properties": {
        "norad_id": 38709,
        "name": "EXACTVIEW-1 (ADS-1B)",
        "group": "resource",
        "lat": 24.231541893986698,
        "lon": -66.8532598218905,
        "alt_km": 814.8393261850861,
        "timestamp": "2025-12-26T09:30:53.284779+00:00",
        "meta_object_name": "EXACTVIEW-1 (ADS-1B)",
        "meta_object_id": "2012-039C",
        "meta_epoch": "2025-12-25T20:59:26.609856",
        "meta_mean_motion": 14.24913142,
        "meta_eccentricity": 0.0010108,
        "meta_inclination": 98.9638,
        "meta_ra_of_asc_node": 108.5404,
        "meta_arg_of_pericenter": 314.6853,
        "meta_mean_anomaly": 45.3501,
        "meta_ephemeris_type": 0,
        "meta_classification_type": "U",
        "meta_norad_cat_id": 38709,
        "meta_element_set_no": 999,
        "meta_rev_at_epoch": 69802,
        "meta_bstar": 8.8694e-05,
        "meta_mean_motion_dot": 1.61e-06,
        "meta_mean_motion_ddot": 0,
        "tle_line1": "1 38709U 12039C   25359.87461354  .00000161  00000+0  88694-4 0  9990",
        "tle_line2": "2 38709  98.9638 108.5404 0010108 314.6853  45.3501 14.24913142698028"
      },
      "geometry": {
        "type": "Point",
        "coordinates": [
          -66.8532598218905,
          24.231541893986698
        ]
      }
    }
  ]
}